start=new Date('2023-05-11T00:00:00.000Z').valueOf();
sats=[{"SITE":"AFETR","MEAN_ELEMENT_THEORY":"SGP4","DECAY_DATE":null,"MEAN_ANOMALY":"271.1777","TLE_LINE2":"2 53578  53.2180  14.9004 0001048  88.9335 271.1777 15.08840594 40376","REV_AT_EPOCH":"4037","PERIOD":"95.438","MEAN_MOTION":"15.08840594","BSTAR":"0.00002331100000","INCLINATION":"53.2180","PERIAPSIS":"539.019","SEMIMAJOR_AXIS":"6917.879","OBJECT_NAME":"STARLINK-4556","ECCENTRICITY":"0.00010480","ARG_OF_PERICENTER":"88.9335","ELEMENT_SET_NO":"999","EPOCH":"2023-05-10T20:04:23.808288","LAUNCH_DATE":"2022-08-19","EPHEMERIS_TYPE":"0","FILE":"3904830","OBJECT_TYPE":"PAYLOAD","CENTER_NAME":"EARTH","COUNTRY_CODE":"US","APOAPSIS":"540.469","TLE_LINE1":"1 53578U 22101BD  23130.83638667  .00000083  00000-0  23311-4 0  9995","RCS_SIZE":"LARGE","REF_FRAME":"TEME","OBJECT_ID":"2022-101BD","MEAN_MOTION_DDOT":"0.0000000000000","GP_ID":"231567153","TIME_SYSTEM":"UTC","MEAN_MOTION_DOT":"0.00000083","NORAD_CAT_ID":"53578","CLASSIFICATION_TYPE":"U","RA_OF_ASC_NODE":"14.9004"},{"ARG_OF_PERICENTER":"82.6984","SEMIMAJOR_AXIS":"6917.881","OBJECT_NAME":"STARLINK-4580","ECCENTRICITY":"0.00014760","PERIAPSIS":"538.725","EPHEMERIS_TYPE":"0","LAUNCH_DATE":"2022-08-19","EPOCH":"2023-05-10T19:59:04.908480","ELEMENT_SET_NO":"999","MEAN_ANOMALY":"277.4175","DECAY_DATE":null,"MEAN_ELEMENT_THEORY":"SGP4","SITE":"AFETR","INCLINATION":"53.2177","BSTAR":"-0.00010001000000","MEAN_MOTION":"15.08839867","PERIOD":"95.438","REV_AT_EPOCH":"4037","TLE_LINE2":"2 53579  53.2177  14.8763 0001476  82.6984 277.4175 15.08839867 40372","GP_ID":"231567905","MEAN_MOTION_DDOT":"0.0000000000000","OBJECT_ID":"2022-101BE","REF_FRAME":"TEME","RCS_SIZE":"LARGE","RA_OF_ASC_NODE":"14.8763","CLASSIFICATION_TYPE":"U","NORAD_CAT_ID":"53579","MEAN_MOTION_DOT":"-0.00001879","TIME_SYSTEM":"UTC","TLE_LINE1":"1 53579U 22101BE  23130.83269570 -.00001879  00000-0 -10001-3 0  9996","APOAPSIS":"540.767","COUNTRY_CODE":"US","OBJECT_TYPE":"PAYLOAD","CENTER_NAME":"EARTH","FILE":"3904830"},{"BSTAR":"0.00016803000000","INCLINATION":"53.2159","REV_AT_EPOCH":"4002","TLE_LINE2":"2 53588  53.2159 205.2492 0001219  89.0831 271.0301 15.08839758 40026","MEAN_MOTION":"15.08839758","PERIOD":"95.438","SITE":"AFETR","MEAN_ANOMALY":"271.0301","DECAY_DATE":null,"MEAN_ELEMENT_THEORY":"SGP4","LAUNCH_DATE":"2022-08-28","EPHEMERIS_TYPE":"0","ELEMENT_SET_NO":"999","EPOCH":"2023-05-10T21:30:36.829440","SEMIMAJOR_AXIS":"6917.881","ECCENTRICITY":"0.00012190","OBJECT_NAME":"STARLINK-4691","ARG_OF_PERICENTER":"89.0831","PERIAPSIS":"538.903","COUNTRY_CODE":"US","OBJECT_TYPE":"PAYLOAD","CENTER_NAME":"EARTH","TLE_LINE1":"1 53588U 22104A   23130.89625960  .00002387  00000-0  16803-3 0  9993","APOAPSIS":"540.589","FILE":"3904830","RA_OF_ASC_NODE":"205.2492","CLASSIFICATION_TYPE":"U","TIME_SYSTEM":"UTC","NORAD_CAT_ID":"53588","MEAN_MOTION_DOT":"0.00002387","OBJECT_ID":"2022-104A","REF_FRAME":"TEME","GP_ID":"231568406","MEAN_MOTION_DDOT":"0.0000000000000","RCS_SIZE":"LARGE"},{"TIME_SYSTEM":"UTC","MEAN_MOTION_DOT":"0.00007096","NORAD_CAT_ID":"53589","CLASSIFICATION_TYPE":"U","RA_OF_ASC_NODE":"206.0184","RCS_SIZE":"LARGE","REF_FRAME":"TEME","OBJECT_ID":"2022-104B","MEAN_MOTION_DDOT":"0.0000000000000","GP_ID":"231568657","FILE":"3904830","CENTER_NAME":"EARTH","OBJECT_TYPE":"PAYLOAD","COUNTRY_CODE":"US","APOAPSIS":"540.302","TLE_LINE1":"1 53589U 22104B   23130.67911110  .00007096  00000-0  46331-3 0  9996","ELEMENT_SET_NO":"999","EPOCH":"2023-05-10T16:17:55.199040","LAUNCH_DATE":"2022-08-28","EPHEMERIS_TYPE":"0","PERIAPSIS":"539.126","SEMIMAJOR_AXIS":"6917.849","ECCENTRICITY":"0.00008500","OBJECT_NAME":"STARLINK-4673","ARG_OF_PERICENTER":"136.2072","TLE_LINE2":"2 53589  53.2144 206.0184 0000850 136.2072 223.8988 15.08850245 39848","REV_AT_EPOCH":"3984","PERIOD":"95.437","MEAN_MOTION":"15.08850245","BSTAR":"0.00046331000000","INCLINATION":"53.2144","SITE":"AFETR","MEAN_ELEMENT_THEORY":"SGP4","MEAN_ANOMALY":"223.8988","DECAY_DATE":null},{"ARG_OF_PERICENTER":"116.2404","SEMIMAJOR_AXIS":"6917.918","ECCENTRICITY":"0.00007370","OBJECT_NAME":"STARLINK-4689","PERIAPSIS":"539.274","EPHEMERIS_TYPE":"0","LAUNCH_DATE":"2022-08-28","EPOCH":"2023-05-10T13:28:23.602656","ELEMENT_SET_NO":"999","DECAY_DATE":null,"MEAN_ANOMALY":"243.8664","MEAN_ELEMENT_THEORY":"SGP4","SITE":"AFETR","INCLINATION":"53.2157","BSTAR":"0.00002610800000","MEAN_MOTION":"15.08827541","PERIOD":"95.438","REV_AT_EPOCH":"3984","TLE_LINE2":"2 53590  53.2157 206.7106 0000737 116.2404 243.8664 15.08827541 39842","GP_ID":"231567405","MEAN_MOTION_DDOT":"0.0000000000000","OBJECT_ID":"2022-104C","REF_FRAME":"TEME","RCS_SIZE":"LARGE","RA_OF_ASC_NODE":"206.7106","CLASSIFICATION_TYPE":"U","NORAD_CAT_ID":"53590","MEAN_MOTION_DOT":"0.00000128","TIME_SYSTEM":"UTC","TLE_LINE1":"1 53590U 22104C   23130.56138429  .00000128  00000-0  26108-4 0  9990","APOAPSIS":"540.293","COUNTRY_CODE":"US","OBJECT_TYPE":"PAYLOAD","CENTER_NAME":"EARTH","FILE":"3904830"},{"SITE":"AFETR","MEAN_ELEMENT_THEORY":"SGP4","DECAY_DATE":null,"MEAN_ANOMALY":"260.8967","TLE_LINE2":"2 53591  53.2151 206.6855 0001319  99.2174 260.8967 15.08840851 39842","REV_AT_EPOCH":"3984","PERIOD":"95.438","MEAN_MOTION":"15.08840851","BSTAR":"0.00012420000000","INCLINATION":"53.2151","PERIAPSIS":"538.830","SEMIMAJOR_AXIS":"6917.878","OBJECT_NAME":"STARLINK-4674","ECCENTRICITY":"0.00013190","ARG_OF_PERICENTER":"99.2174","ELEMENT_SET_NO":"999","EPOCH":"2023-05-10T13:23:04.225920","LAUNCH_DATE":"2022-08-28","EPHEMERIS_TYPE":"0","FILE":"3904830","CENTER_NAME":"EARTH","OBJECT_TYPE":"PAYLOAD","COUNTRY_CODE":"US","APOAPSIS":"540.655","TLE_LINE1":"1 53591U 22104D   23130.55768780  .00001689  00000-0  12420-3 0  9993","RCS_SIZE":"LARGE","REF_FRAME":"TEME","OBJECT_ID":"2022-104D","MEAN_MOTION_DDOT":"0.0000000000000","GP_ID":"231567154","TIME_SYSTEM":"UTC","MEAN_MOTION_DOT":"0.00001689","NORAD_CAT_ID":"53591","CLASSIFICATION_TYPE":"U","RA_OF_ASC_NODE":"206.6855"},{"INCLINATION":"53.2150","BSTAR":"0.00028981000000","MEAN_MOTION":"15.08848643","PERIOD":"95.437","REV_AT_EPOCH":"3983","TLE_LINE2":"2 53592  53.2150 206.3762 0001336  90.6452 269.4693 15.08848643 39836","MEAN_ANOMALY":"269.4693","DECAY_DATE":null,"MEAN_ELEMENT_THEORY":"SGP4","SITE":"AFETR","EPHEMERIS_TYPE":"0","LAUNCH_DATE":"2022-08-28","EPOCH":"2023-05-10T14:54:31.742208","ELEMENT_SET_NO":"999","ARG_OF_PERICENTER":"90.6452","ECCENTRICITY":"0.00013360","SEMIMAJOR_AXIS":"6917.854","OBJECT_NAME":"STARLINK-4672","PERIAPSIS":"538.795","TLE_LINE1":"1 53592U 22104E   23130.62120072  .00004328  00000-0  28981-3 0  9990","APOAPSIS":"540.643","COUNTRY_CODE":"US","CENTER_NAME":"EARTH","OBJECT_TYPE":"PAYLOAD","FILE":"3904830","RA_OF_ASC_NODE":"206.3762","CLASSIFICATION_TYPE":"U","NORAD_CAT_ID":"53592","MEAN_MOTION_DOT":"0.00004328","TIME_SYSTEM":"UTC","GP_ID":"231567906","MEAN_MOTION_DDOT":"0.0000000000000","OBJECT_ID":"2022-104E","REF_FRAME":"TEME","RCS_SIZE":"LARGE"},{"PERIOD":"95.437","MEAN_MOTION":"15.08841574","TLE_LINE2":"2 53593  53.2150 206.6419 0001426 100.4051 259.7102 15.08841574 39826","REV_AT_EPOCH":"3982","INCLINATION":"53.2150","BSTAR":"0.00014520000000","MEAN_ELEMENT_THEORY":"SGP4","MEAN_ANOMALY":"259.7102","DECAY_DATE":null,"SITE":"AFETR","EPOCH":"2023-05-10T13:12:27.567648","ELEMENT_SET_NO":"999","EPHEMERIS_TYPE":"0","LAUNCH_DATE":"2022-08-28","PERIAPSIS":"538.754","ARG_OF_PERICENTER":"100.4051","SEMIMAJOR_AXIS":"6917.876","OBJECT_NAME":"STARLINK-4671","ECCENTRICITY":"0.00014260","FILE":"3904555","APOAPSIS":"540.727","TLE_LINE1":"1 53593U 22104F   23130.55031907  .00002024  00000-0  14520-3 0  9996","OBJECT_TYPE":"PAYLOAD","CENTER_NAME":"EARTH","COUNTRY_CODE":"US","MEAN_MOTION_DOT":"0.00002024","NORAD_CAT_ID":"53593","TIME_SYSTEM":"UTC","CLASSIFICATION_TYPE":"U","RA_OF_ASC_NODE":"206.6419","RCS_SIZE":"LARGE","MEAN_MOTION_DDOT":"0.0000000000000","GP_ID":"231535274","REF_FRAME":"TEME","OBJECT_ID":"2022-104F"},{"MEAN_MOTION_DDOT":"0.0000000000000","GP_ID":"231535513","REF_FRAME":"TEME","OBJECT_ID":"2022-104G","RCS_SIZE":"LARGE","CLASSIFICATION_TYPE":"U","RA_OF_ASC_NODE":"206.5749","MEAN_MOTION_DOT":"0.00002750","NORAD_CAT_ID":"53594","TIME_SYSTEM":"UTC","APOAPSIS":"540.621","TLE_LINE1":"1 53594U 22104G   23130.53926631  .00002750  00000-0  19082-3 0  9996","CENTER_NAME":"EARTH","OBJECT_TYPE":"PAYLOAD","COUNTRY_CODE":"US","FILE":"3904555","ARG_OF_PERICENTER":"95.9467","SEMIMAJOR_AXIS":"6917.884","OBJECT_NAME":"STARLINK-4681","ECCENTRICITY":"0.00012610","PERIAPSIS":"538.876","EPHEMERIS_TYPE":"0","LAUNCH_DATE":"2022-08-28","EPOCH":"2023-05-10T12:56:32.609184","ELEMENT_SET_NO":"999","MEAN_ELEMENT_THEORY":"SGP4","DECAY_DATE":null,"MEAN_ANOMALY":"264.1668","SITE":"AFETR","INCLINATION":"53.2151","BSTAR":"0.00019082000000","PERIOD":"95.438","MEAN_MOTION":"15.08838905","TLE_LINE2":"2 53594  53.2151 206.5749 0001261  95.9467 264.1668 15.08838905 39965","REV_AT_EPOCH":"3996"},{"RCS_SIZE":"LARGE","MEAN_MOTION_DDOT":"0.0000000000000","GP_ID":"231534278","REF_FRAME":"TEME","OBJECT_ID":"2022-104H","MEAN_MOTION_DOT":"0.00001688","NORAD_CAT_ID":"53595","TIME_SYSTEM":"UTC","CLASSIFICATION_TYPE":"U","RA_OF_ASC_NODE":"206.8911","FILE":"3904555","APOAPSIS":"540.316","TLE_LINE1":"1 53595U 22104H   23130.47671059  .00001688  00000-0  12409-3 0  9996","OBJECT_TYPE":"PAYLOAD","CENTER_NAME":"EARTH","COUNTRY_CODE":"US","PERIAPSIS":"539.179","ARG_OF_PERICENTER":"90.2097","SEMIMAJOR_AXIS":"6917.883","ECCENTRICITY":"0.00008220","OBJECT_NAME":"STARLINK-4684","EPOCH":"2023-05-10T11:26:27.794976","ELEMENT_SET_NO":"999","EPHEMERIS_TYPE":"0","LAUNCH_DATE":"2022-08-28","MEAN_ELEMENT_THEORY":"SGP4","DECAY_DATE":null,"MEAN_ANOMALY":"269.8989","SITE":"AFETR","PERIOD":"95.438","MEAN_MOTION":"15.08839301","TLE_LINE2":"2 53595  53.2163 206.8911 0000822  90.2097 269.8989 15.08839301 39815","REV_AT_EPOCH":"3981","INCLINATION":"53.2163","BSTAR":"0.00012409000000"}];
